QIANFAN-49              
1 62250U 24232P   25275.66428737  .00000185  00000+0  26735-3 0  9991
2 62250  89.0002  48.3939 0015195  46.5901 313.6512 13.50975535 58241
QIANFAN-50              
1 62251U 24232Q   25275.68899230  .00000185  00000+0  26848-3 0  9999
2 62251  89.0006  48.3957 0016877  47.2203 313.0364 13.50976082 58277
QIANFAN-51              
1 62252U 24232R   25275.74656921  .00000175  00000+0  25191-3 0  9994
2 62252  89.0002  48.3881 0014475  51.3513 308.8931 13.50973033 58277
QIANFAN-52              
1 62253U 24232S   25275.70128938  .00000189  00000+0  27377-3 0  9996
2 62253  88.9996  48.2690 0016280  43.5229 316.7203 13.50975546 58358
QIANFAN-53              
1 62254U 24232T   25275.68076190  .00000178  00000+0  25705-3 0  9997
2 62254  89.0005  48.3703 0015196  45.0339 315.2041 13.50971330 58319
QIANFAN-54              
1 62255U 24232U   25275.72186064  .00000189  00000+0  27455-3 0  9991
2 62255  88.9995  48.0507 0003870  89.7528 270.4066 13.50973430 89828
QIANFAN-55              
1 62785U 25016A   25275.67376670  .00000084  00000+0  11216-3 0  9990
2 62785  88.9750 110.5524 0016824 188.2985 171.7891 13.50966154 37595
QIANFAN-56              
1 62786U 25016B   25275.76437699  .00000097  00000+0  13176-3 0  9991
2 62786  88.9723 110.3988 0015426 190.0305 170.0540 13.50974341 37659
